IRIDIUM 8 [+]           
1 24792U 97020A   16205.20827896  .00000181  00000-0  57389-4 0  9994
2 24792  86.3964  96.2454 0002280  85.3191 274.8265 14.34222326  6044
IRIDIUM 7 [+]           
1 24793U 97020B   16205.20194073  .00000171  00000-0  54171-4 0  9994
2 24793  86.3969  96.5130 0002235  84.4835 275.6616 14.34222025  6044
IRIDIUM 6 [+]           
1 24794U 97020C   16205.19552304  .00000172  00000-0  54256-4 0  9993
2 24794  86.3967  96.4539 0002197  82.7523 277.3922 14.34220777  6048
IRIDIUM 5 [+]           
1 24795U 97020D   16205.18925262  .00000198  00000-0  63587-4 0  9995
2 24795  86.3967  96.4870 0002081  85.0508 275.0925 14.34222816  6121
IRIDIUM 4 [-]           
1 24796U 97020E   16205.33869509  .00000114  00000-0  32889-4 0  9993
2 24796  86.3960  95.5644 0002273  86.0241  50.2666 14.35091971  6146
IRIDIUM 914 [-]         
1 24836U 97030A   16205.36099491  .00000152  00000-0  42980-4 0  9992
2 24836  86.3957 113.1930 0003793  95.8871 264.2759 14.38693264  1665
IRIDIUM 12 [+]          
1 24837U 97030B   16205.37117016  .00000210  00000-0  67962-4 0  9990
2 24837  86.3990 127.5773 0002289  84.9470  50.7631 14.34214811999813
IRIDIUM 10 [+]          
1 24839U 97030D   16205.48906471  .00000199  00000-0  64173-4 0  9992
2 24839  86.3988 127.5097 0002326  84.6918   4.8588 14.34214582999846
IRIDIUM 13 [+]          
1 24840U 97030E   16205.35123882  .00000192  00000-0  61628-4 0  9992
2 24840  86.3991 127.7003 0002246  88.4676 271.6777 14.34215174999814
IRIDIUM 16 [-]          
1 24841U 97030F   16205.24845556  .00000184  00000-0  55754-4 0  9994
2 24841  86.4069 127.7991 0000681   0.4319 359.6879 14.36644469   354
IRIDIUM 911 [-]         
1 24842U 97030G   16205.36889442  .00000146  00000-0  36161-4 0  9999
2 24842  86.4495 128.7269 0016746 100.8107 259.4981 14.44873480  5460
IRIDIUM 15 [+]          
1 24869U 97034A   16205.39269605  .00000126  00000-0  38007-4 0  9997
2 24869  86.3990 159.5582 0002210  79.1823 280.9621 14.34217325996785
IRIDIUM 17 [-]          
1 24870U 97034B   16205.48652730  .00000131  00000-0  38436-4 0  9996
2 24870  86.3999 157.9064 0001848 136.2807 223.8536 14.35686107997002
IRIDIUM 920 [-]         
1 24871U 97034C   16205.42590574  .00000124  00000-0  33520-4 0  9999
2 24871  86.4011 144.9188 0011395 353.4812   6.6237 14.39413287999052
IRIDIUM 18 [+]          
1 24872U 97034D   16205.37368883  .00000117  00000-0  34738-4 0  9994
2 24872  86.3998 159.5157 0002226  83.0757 277.0692 14.34218827996785
IRIDIUM 921 [-]         
1 24873U 97034E   16205.49634518  .00000638  00000-0  36483-4 0  9996
2 24873  86.3931 221.2034 0009475 132.7514 227.4522 15.10592963 38464
IRIDIUM 26 [-]          
1 24903U 97043A   16205.51299292  .00000093  00000-0  25556-4 0  9993
2 24903  86.3946  32.4098 0002064  86.0514 331.1200 14.35204118990836
IRIDIUM 25 [+]          
1 24904U 97043B   16205.46150473 -.00000025  00000-0 -15961-4 0  9991
2 24904  86.3938  32.8667 0002029  81.7552 278.3873 14.34216653990709
IRIDIUM 46 [+]          
1 24905U 97043C   16205.47418418 -.00000010  00000-0 -10684-4 0  9990
2 24905  86.3946  33.3854 0002119  82.0624 278.0812 14.34217237990717
IRIDIUM 23 [+]          
1 24906U 97043D   16205.54776984  .00000055  00000-0  12691-4 0  9991
2 24906  86.3954  32.8283 0002228  84.4867 327.9356 14.34216019990739
IRIDIUM 22 [+]          
1 24907U 97043E   16205.44246656 -.00000025  00000-0 -16043-4 0  9993
2 24907  86.3948  33.5053 0002109  83.7211 276.4225 14.34217276990705
DUMMY MASS 1 [-]        
1 24925U 97048A   16205.50494451  .00000085  00000-0  66580-5 0  9999
2 24925  86.3358 194.9209 0009136 115.9458 244.2708 14.85086301 22808
DUMMY MASS 2 [-]        
1 24926U 97048B   16205.08783300  .00000080  00000-0  60550-5 0  9993
2 24926  86.3356 196.1739 0009760 123.6928 236.5228 14.84854818 22592
IRIDIUM 29 [-]          
1 24944U 97051A   16205.17380223  .00000060  00000-0  14226-4 0  9990
2 24944  86.3940  64.5217 0002441  92.7507 267.3968 14.34587022987259
IRIDIUM 32 [+]          
1 24945U 97051B   16205.54102800  .00000106  00000-0  30724-4 0  9997
2 24945  86.3939  64.5125 0002263  84.5797 275.5657 14.34220762987316
IRIDIUM 33 [-]          
1 24946U 97051C   16205.48565624  .00000102  00000-0  29745-4 0  9995
2 24946  86.3854  64.3321 0006233 223.5705 136.4999 14.33500943986947
IRIDIUM 28 [-]          
1 24948U 97051E   16205.53758783  .00000113  00000-0  32469-4 0  9992
2 24948  86.3944  63.7885 0001825  86.0663 274.0742 14.35491440987426
IRIDIUM 30 [+]          
1 24949U 97051F   16205.53467948  .00000101  00000-0  29120-4 0  9990
2 24949  86.3941  64.6058 0002258  83.0989 277.0464 14.34221158987290
IRIDIUM 31 [+]          
1 24950U 97051G   16205.52833001  .00000098  00000-0  27991-4 0  9997
2 24950  86.3941  64.6083 0002266  88.7153 271.4302 14.34221361987301
IRIDIUM 19 [+]          
1 24965U 97056A   16205.23366248  .00000185  00000-0  58913-4 0  9995
2 24965  86.3965  96.2438 0002237  84.6971 275.4480 14.34221614985400
IRIDIUM 35 [+]          
1 24966U 97056B   16205.31609639  .00000180  00000-0  57180-4 0  9999
2 24966  86.3964  96.2057 0002255  84.1514 275.9938 14.34213060985392
IRIDIUM 36 [-]          
1 24967U 97056C   16205.20579073  .00000135  00000-0  39982-4 0  9996
2 24967  86.3974  95.5682 0002233  90.1038 270.0414 14.35540579985668
IRIDIUM 37 [+]          
1 24968U 97056D   16205.22096767  .00000177  00000-0  56064-4 0  9999
2 24968  86.3967  96.4223 0002267  85.0087 275.1368 14.34222365985388
IRIDIUM 34 [+]          
1 24969U 97056E   16205.30976806  .00000181  00000-0  57426-4 0  9998
2 24969  86.3967  96.3221 0002229  85.9059 274.2392 14.34221963985393
IRIDIUM 43 [+]          
1 25039U 97069A   16205.43709897  .00000127  00000-0  38243-4 0  9995
2 25039  86.4002 159.4111 0002338  88.9830 271.1634 14.34216722979196
IRIDIUM 41 [+]          
1 25040U 97069B   16205.43075926  .00000128  00000-0  38511-4 0  9995
2 25040  86.3997 159.3776 0002194  81.4448 278.6996 14.34219560979195
IRIDIUM 40 [+]          
1 25041U 97069C   16205.38635822  .00000114  00000-0  33497-4 0  9990
2 25041  86.3998 159.6156 0002763 107.1732 252.9766 14.34216560979205
IRIDIUM 39 [B]          
1 25042U 97069D   16205.40970510  .00000149  00000-0  35986-4 0  9993
2 25042  86.3955 159.4728 0017915 332.6467  27.3791 14.46069679979209
IRIDIUM 38 [-]          
1 25043U 97069E   16205.39114482  .00000112  00000-0  31766-4 0  9992
2 25043  86.3997 156.9760 0001076  70.6256 289.5057 14.35962217979542
IRIDIUM 42 [-]          
1 25077U 97077A   16205.36902955  .00000084  00000-0  22965-4 0  9994
2 25077  86.3999 159.4075 0002116  86.4444 273.6994 14.34492258975056
IRIDIUM 44 [-]          
1 25078U 97077B   16205.30614038  .00000154  00000-0  44180-4 0  9992
2 25078  86.3999 149.8289 0000574  84.1674 275.9589 14.38047631976368
IRIDIUM 45 [+]          
1 25104U 97082A   16205.52198331  .00000107  00000-0  31101-4 0  9992
2 25104  86.3938  64.6514 0001279  57.7226 302.4093 14.34221804973262
IRIDIUM 24 [-]          
1 25105U 97082B   16205.46141161  .00000108  00000-0  28228-4 0  9992
2 25105  86.3925  14.2626 0011370 358.4135   1.7026 14.39790601975557
IRIDIUM 47 [+]          
1 25106U 97082C   16205.48053188 -.00000017  00000-0 -13215-4 0  9997
2 25106  86.3935  32.7402 0002177  80.7809 279.3632 14.34216854973253
IRIDIUM 49 [+]          
1 25108U 97082E   16205.50372737 -.00000020  00000-0 -14253-4 0  9993
2 25108  86.3937  32.8246 0002113  82.0549 332.3338 14.34216915973262
IRIDIUM 52 [+]          
1 25169U 98010A   16205.38295780  .00000198  00000-0  63496-4 0  9997
2 25169  86.3994 127.8527 0002266  86.0885 274.0570 14.34215366964657
IRIDIUM 56 [+]          
1 25170U 98010B   16205.37660285  .00000208  00000-0  67371-4 0  9992
2 25170  86.4003 127.9561 0002147  78.1589 281.9848 14.34215463964632
IRIDIUM 54 [+]          
1 25171U 98010C   16205.40830349  .00000191  00000-0  61299-4 0  9991
2 25171  86.3994 127.8613 0002293  85.9819 274.1639 14.34221957964808
IRIDIUM 50 [+]          
1 25172U 98010D   16205.30050003  .00000191  00000-0  61290-4 0  9993
2 25172  86.3994 127.8644 0002361  85.9358 274.2107 14.34214614964620
IRIDIUM 53 [+]          
1 25173U 98010E   16205.31952675  .00000192  00000-0  61376-4 0  9997
2 25173  86.3994 127.8622 0002273  86.2047 273.9409 14.34214736964635
IRIDIUM 51 [S]          
1 25262U 98018A   16205.19559843  .00000215  00000-0  69685-4 0  9997
2 25262  86.3980  96.5533 0002379  82.2168 277.9297 14.34223076964006
IRIDIUM 61 [+]          
1 25263U 98018B   16205.22731664  .00000180  00000-0  57031-4 0  9998
2 25263  86.3967  96.3856 0002250  84.2241 275.9211 14.34221735959716
IRIDIUM 55 [+]          
1 25272U 98019A   16205.16045693  .00000105  00000-0  30405-4 0  9995
2 25272  86.3940  64.5821 0002224  84.9382 275.2068 14.34221711958907
IRIDIUM 57 [-]          
1 25273U 98019B   16205.13485903  .00000073  00000-0  18928-4 0  9995
2 25273  86.3944  64.8858 0002264  88.9676 271.1779 14.34227632958901
IRIDIUM 58 [+]          
1 25274U 98019C   16205.14143964  .00000108  00000-0  31374-4 0  9994
2 25274  86.3946  65.0710 0002247  83.4886 276.6566 14.34220555958909
IRIDIUM 59 [+]          
1 25275U 98019D   16205.14778564  .00000112  00000-0  33062-4 0  9996
2 25275  86.3941  64.9393 0002322  85.7653 274.3808 14.34219460958908
IRIDIUM 60 [+]          
1 25276U 98019E   16205.15412449  .00000099  00000-0  28301-4 0  9999
2 25276  86.3938  64.5688 0002203  85.2279 274.9169 14.34220793958902
IRIDIUM 62 [+]          
1 25285U 98021A   16205.53427562  .00000012  00000-0 -29366-5 0  9995
2 25285  86.3965   1.2989 0002211  88.0709 272.0740 14.34212811957918
IRIDIUM 63 [-]          
1 25286U 98021B   16205.50400384  .00000079  00000-0  21111-4 0  9997
2 25286  86.3994   1.6985 0002458  91.4646 330.2242 14.34602463957923
